H1 CPF 01  gfz 2021 05 24 12  6442 tandemx   
H2 1003001  6202 36605    2021 05 24 12 59 42 2021 05 29 00 00 42   120 1 1  0 0 0
H9
10 0 59359  43182.000000  0      47907.384  -6889417.165    -17098.151
10 0 59359  43302.000000  0    -130106.489  -6827848.363   -919584.860
10 0 59359  43422.000000  0    -303699.899  -6643965.021  -1805899.739
10 0 59359  43542.000000  0    -467735.050  -6341191.406  -2660479.656
10 0 59359  43662.000000  0    -617325.445  -5925123.462  -3468349.256
10 0 59359  43782.000000  0    -747958.485  -5403414.219  -4215386.788
10 0 59359  43902.000000  0    -855608.088  -4785619.414  -4888570.119
10 0 59359  44022.000000  0    -936834.858  -4083010.050  -5476198.148
10 0 59359  44142.000000  0    -988871.723  -3308356.533  -5968085.972
10 0 59359  44262.000000  0   -1009693.276  -2475689.105  -6355731.193
10 0 59359  44382.000000  0    -998067.951  -1600039.458  -6632449.393
10 0 59359  44502.000000  0    -953592.438   -697169.595  -6793478.047
10 0 59359  44622.000000  0    -876708.003    216708.409  -6836049.920
10 0 59359  44742.000000  0    -768697.561   1125217.387  -6759434.274
10 0 59359  44862.000000  0    -631664.581   2012100.621  -6564947.817
10 0 59359  44982.000000  0    -468494.358   2861505.094  -6255934.769
10 0 59359  45102.000000  0    -282797.130   3658259.905  -5837717.102
10 0 59359  45222.000000  0     -78833.629   4388145.873  -5317512.249
10 0 59359  45342.000000  0     138575.093   5038150.265  -4704319.694
10 0 59359  45462.000000  0     364152.146   5596704.915  -4008776.946
10 0 59359  45582.000000  0     592282.332   6053901.368  -3242984.446
10 0 59359  45702.000000  0     817140.231   6401677.816  -2420302.346
10 0 59359  45822.000000  0    1032826.311   6633974.254  -1555121.465
10 0 59359  45942.000000  0    1233507.836   6746850.712   -662611.258
10 0 59359  46062.000000  0    1413561.373   6738564.592    241550.298
10 0 59359  46182.000000  0    1567712.804   6609603.446   1141459.131
10 0 59359  46302.000000  0    1691170.387   6362673.265   2021272.407
10 0 59359  46422.000000  0    1779748.821   6002643.291   2865495.478
10 0 59359  46542.000000  0    1829980.755   5536447.860   3659262.472
10 0 59359  46662.000000  0    1839212.402   4972946.968   4388605.366
10 0 59359  46782.000000  0    1805681.289   4322748.664   5040704.092
10 0 59359  46902.000000  0    1728573.738   3597997.424   5604112.628
10 0 59359  47022.000000  0    1608061.174   2812138.915   6068954.652
10 0 59359  47142.000000  0    1445315.816   1979664.475   6427092.677
10 0 59359  47262.000000  0    1242504.347   1115838.181   6672265.254
10 0 59359  47382.000000  0    1002760.240    236413.468   6800189.503
10 0 59359  47502.000000  0     730135.475   -642653.279   6808630.814
10 0 59359  47622.000000  0     429531.899  -1505491.817   6697441.254
10 0 59359  47742.000000  0     106612.906  -2336604.742   6468562.060
10 0 59359  47862.000000  0    -232303.143  -3121146.516   6125991.888
10 0 59359  47982.000000  0    -580364.817  -3845190.105   5675718.852
10 0 59359  48102.000000  0    -930322.750  -4495974.933   5125620.856
10 0 59359  48222.000000  0   -1274677.390  -5062136.761   4485336.692
10 0 59359  48342.000000  0   -1605837.664  -5533916.035   3766103.598
10 0 59359  48462.000000  0   -1916285.319  -5903336.305   2980561.910
10 0 59359  48582.000000  0   -2198742.004  -6164347.658   2142532.682
10 0 59359  48702.000000  0   -2446335.200  -6312933.221   1266771.778
10 0 59359  48822.000000  0   -2652757.598  -6347175.766    368704.171
10 0 59359  48942.000000  0   -2812416.675  -6267282.335   -535855.527
10 0 59359  49062.000000  0   -2920570.549  -6075565.922  -1430990.404
10 0 59359  49182.000000  0   -2973446.925  -5776384.450  -2300970.026
10 0 59359  49302.000000  0   -2968342.116  -5376039.011  -3130534.249
10 0 59359  49422.000000  0   -2903697.166  -4882633.736  -3905165.907
10 0 59359  49542.000000  0   -2779149.272  -4305901.842  -4611345.273
10 0 59359  49662.000000  0   -2595558.481  -3657004.261  -5236782.045
10 0 59359  49782.000000  0   -2355009.972  -2948305.794  -5770622.146
10 0 59359  49902.000000  0   -2060792.042  -2193133.693  -6203626.920
10 0 59359  50022.000000  0   -1717349.460  -1405523.621  -6528322.419
10 0 59359  50142.000000  0   -1330214.320   -599958.433  -6739116.478
10 0 59359  50262.000000  0    -905916.940    208895.017  -6832383.988
10 0 59359  50382.000000  0    -451877.075   1006446.626  -6806521.975
10 0 59359  50502.000000  0      23723.297   1778439.312  -6661973.927
10 0 59359  50622.000000  0     512082.362   2511196.894  -6401223.577
10 0 59359  50742.000000  0    1003937.534   3191862.382  -6028758.979
10 0 59359  50862.000000  0    1489737.315   3808621.959  -5551002.631
10 0 59359  50982.000000  0    1959822.486   4350910.340  -4976211.125
10 0 59359  51102.000000  0    2404615.529   4809596.187  -4314344.570
10 0 59359  51222.000000  0    2814814.020   5177143.553  -3576904.083
10 0 59359  51342.000000  0    3181583.981   5447744.456  -2776740.534
10 0 59359  51462.000000  0    3496750.223   5617420.757  -1927836.153
10 0 59359  51582.000000  0    3752978.093   5684090.813  -1045061.644
10 0 59359  51702.000000  0    3943941.613   5647599.551   -143913.169
10 0 59359  51822.000000  0    4064473.634   5509709.780    759765.370
10 0 59359  51942.000000  0    4110694.175   5274054.096   1650068.603
10 0 59359  52062.000000  0    4080113.039   4946049.294   2511316.811
10 0 59359  52182.000000  0    3971705.704   4532777.228   3328341.765
10 0 59359  52302.000000  0    3785956.368   4042828.717   4086761.676
10 0 59359  52422.000000  0    3524872.098   3486120.961   4773237.198
10 0 59359  52542.000000  0    3191965.397   2873692.645   5375710.008
10 0 59359  52662.000000  0    2792203.001   2217477.761   5883613.214
10 0 59359  52782.000000  0    2331929.481   1530068.096   6288050.663
10 0 59359  52902.000000  0    1818763.331    824467.702   6581947.781
10 0 59359  53022.000000  0    1261467.415    113845.266   6760168.482
10 0 59359  53142.000000  0     669797.401   -588710.386   6819600.101
10 0 59359  53262.000000  0      54330.333  -1270431.675   6759205.537
10 0 59359  53382.000000  0    -573724.775  -1919104.266   6580039.780
10 0 59359  53502.000000  0   -1202731.013  -2523286.031   6285231.743
10 0 59359  53622.000000  0   -1820837.384  -3072508.827   5879931.518
10 0 59359  53742.000000  0   -2416199.996  -3557461.306   5371227.071
10 0 59359  53862.000000  0   -2977210.707  -3970151.352   4768028.299
10 0 59359  53982.000000  0   -3492727.935  -4304043.270   4080916.319
10 0 59359  54102.000000  0   -3952301.598  -4554166.092   3321960.585
10 0 59359  54222.000000  0   -4346387.845  -4717191.682   2504508.277
10 0 59359  54342.000000  0   -4666550.578  -4791481.217   1642948.857
10 0 59359  54462.000000  0   -4905644.282  -4777097.118    752456.078
10 0 59359  54582.000000  0   -5057972.732  -4675780.043   -151285.974
10 0 59359  54702.000000  0   -5119419.951  -4490891.762  -1052367.616
10 0 59359  54822.000000  0   -5087549.334  -4227324.915  -1934943.466
10 0 59359  54942.000000  0   -4961667.615  -3891381.105  -2783519.966
10 0 59359  55062.000000  0   -4742852.691  -3490621.949  -3583232.525
10 0 59359  55182.000000  0   -4433946.460  -3033698.208  -4320107.491
10 0 59359  55302.000000  0   -4039513.098  -2530160.945  -4981304.813
10 0 59359  55422.000000  0   -3565763.854  -1990259.356  -5555336.359
10 0 59359  55542.000000  0   -3020451.509  -1424730.630  -6032256.970
10 0 59359  55662.000000  0   -2412737.237   -844585.967  -6403826.334
10 0 59359  55782.000000  0   -1753031.899   -260897.508  -6663640.007
10 0 59359  55902.000000  0   -1052815.726    315409.486  -6807227.535
10 0 59359  56022.000000  0    -324441.456    873755.525  -6832120.220
10 0 59359  56142.000000  0     419078.735   1404096.162  -6737888.855
10 0 59359  56262.000000  0    1164298.792   1897097.244  -6526151.403
10 0 59359  56382.000000  0    1897577.135   2344296.555  -6200549.787
10 0 59359  56502.000000  0    2605321.463   2738247.773  -5766693.858
10 0 59359  56622.000000  0    3274237.441   3072644.642  -5232073.481
10 0 59359  56742.000000  0    3891576.428   3342423.693  -4605941.195
10 0 59359  56862.000000  0    4445381.026   3543844.892  -3899163.810
10 0 59359  56982.000000  0    4924721.982   3674546.528  -3124043.074
10 0 59359  57102.000000  0    5319919.842   3733573.134  -2294107.795
10 0 59359  57222.000000  0    5622747.525   3721376.521  -1423881.247
10 0 59359  57342.000000  0    5826608.459   3639787.532   -528626.040
10 0 59359  57462.000000  0    5926684.743   3491959.447    375927.173
10 0 59359  57582.000000  0    5920052.144   3282284.113   1273862.739
10 0 59359  57702.000000  0    5805756.890   3016282.080   2149368.690
10 0 59359  57822.000000  0    5584852.686   2700470.582   2987023.711
10 0 59359  57942.000000  0    5260397.277   2342211.864   3772077.610
10 0 59359  58062.000000  0    4837406.898   1949545.429   4490717.346
10 0 59359  58182.000000  0    4322771.903   1531009.550   5130311.424
10 0 59359  58302.000000  0    3725138.991   1095456.715   5679632.551
10 0 59359  58422.000000  0    3054755.629    651866.505   6129053.317
10 0 59359  58542.000000  0    2323285.955    209160.843   6470707.483
10 0 59359  58662.000000  0    1543603.956   -223973.493   6698621.232
10 0 59359  58782.000000  0     729564.186   -639254.251   6808813.612
10 0 59359  58902.000000  0    -104247.041  -1028961.604   6799361.770
10 0 59359  59022.000000  0    -942773.146  -1386080.938   6670431.567
10 0 59359  59142.000000  0   -1770758.473  -1704429.332   6424273.826
10 0 59359  59262.000000  0   -2573023.902  -1978762.071   6065186.404
10 0 59359  59382.000000  0   -3334743.895  -2204859.027   5599446.115
10 0 59359  59502.000000  0   -4041725.016  -2379591.554   5035206.782
10 0 59359  59622.000000  0   -4680675.807  -2500966.287   4382360.921
99
